[{"OBJECT_NAME":"CUBEBUG-2 (LO-74)","OBJECT_ID":"2013-066AA","EPOCH":"2026-03-09T19:57:37.220256","MEAN_MOTION":14.92958446,"ECCENTRICITY":0.00587054,"INCLINATION":97.8812,"RA_OF_ASC_NODE":17.505,"ARG_OF_PERICENTER":358.4894,"MEAN_ANOMALY":1.6138,"EPHEMERIS_TYPE":0,"CLASSIFICATION_TYPE":"U","NORAD_CAT_ID":39440,"ELEMENT_SET_NO":999,"REV_AT_EPOCH":66216,"BSTAR":0.0005932098,"MEAN_MOTION_DOT":6.31e-5,"MEAN_MOTION_DDOT":0},{"OBJECT_NAME":"CZ-4B DEB","OBJECT_ID":"1999-057HN","EPOCH":"2026-03-09T18:25:21.450432","MEAN_MOTION":14.85566097,"ECCENTRICITY":0.00485224,"INCLINATION":98.2919,"RA_OF_ASC_NODE":162.1261,"ARG_OF_PERICENTER":121.345,"MEAN_ANOMALY":0.0093,"EPHEMERIS_TYPE":0,"CLASSIFICATION_TYPE":"U","NORAD_CAT_ID":26329,"ELEMENT_SET_NO":999,"REV_AT_EPOCH":37257,"BSTAR":0.0017246939,"MEAN_MOTION_DOT":0.000152,"MEAN_MOTION_DDOT":0}]
